{"type": "FeatureCollection", "features": [{"type": "Feature", "properties": {"namn": "Uppsala kommun", "kalla": "OpenStreetMap, relation 305455, förenklad", "licens": "Data © OpenStreetMap contributors, ODbL 1.0, https://osm.org/copyright"}, "geometry": {"type": "MultiPolygon", "coordinates": [[[[17.1416, 60.0002], [17.1485, 60.0064], [17.1349, 60.0115], [17.1398, 60.0037], [17.1355, 60.002], [17.1416, 60.0002]]], [[[17.1416, 60.0002], [17.0846, 59.9906], [17.0799, 59.9722], [17.1244, 59.9711], [17.1277, 59.9667], [17.1331, 59.9541], [17.1237, 59.9192], [17.127, 59.9186], [17.1241, 59.8998], [17.1279, 59.8879], [17.1184, 59.8885], [17.1187, 59.8825], [17.1383, 59.8809], [17.1471, 59.8689], [17.1699, 59.8635], [17.155, 59.8515], [17.1562, 59.8453], [17.1823, 59.8305], [17.1909, 59.8311], [17.1901, 59.8254], [17.2135, 59.8329], [17.2333, 59.82], [17.232, 59.8166], [17.2423, 59.8068], [17.2815, 59.7838], [17.3146, 59.7933], [17.355, 59.7828], [17.3706, 59.7897], [17.3832, 59.7753], [17.3932, 59.7728], [17.3893, 59.7716], [17.3953, 59.7517], [17.4095, 59.7321], [17.4318, 59.7307], [17.5652, 59.7341], [17.6099, 59.7447], [17.6134, 59.7613], [17.6221, 59.7731], [17.6605, 59.7862], [17.6673, 59.7965], [17.6757, 59.7894], [17.6722, 59.7766], [17.694, 59.7657], [17.7278, 59.7695], [17.7569, 59.7778], [17.7608, 59.7809], [17.7565, 59.7855], [17.7644, 59.7818], [17.7604, 59.7863], [17.771, 59.8005], [17.8044, 59.8239], [17.8795, 59.8138], [17.9015, 59.8185], [17.9258, 59.8168], [17.9696, 59.8065], [18.0066, 59.8118], [18.0268, 59.8281], [18.0527, 59.8199], [18.0576, 59.8112], [18.0654, 59.8094], [18.097, 59.8114], [18.1318, 59.8202], [18.1977, 59.8315], [18.2197, 59.8282], [18.2574, 59.8351], [18.2734, 59.8506], [18.3373, 59.8634], [18.3647, 59.8645], [18.3631, 59.8727], [18.3859, 59.8806], [18.3927, 59.8898], [18.4032, 59.8929], [18.3938, 59.9192], [18.378, 59.931], [18.3772, 59.9364], [18.3903, 59.9536], [18.4234, 59.9563], [18.4293, 59.965], [18.4272, 59.9819], [18.4512, 59.9942], [18.4622, 59.9937], [18.4734, 60.0043], [18.395, 60.0359], [18.3885, 60.0411], [18.3968, 60.0455], [18.3888, 60.059], [18.3637, 60.0598], [18.3619, 60.065], [18.3504, 60.0658], [18.3191, 60.0614], [18.3389, 60.0384], [18.2489, 60.0334], [18.2329, 60.0301], [18.2363, 60.0265], [18.2318, 60.0231], [18.0663, 60.0496], [18.0491, 60.0433], [18.0664, 60.0395], [18.0648, 60.0355], [18.0382, 60.0333], [18.0373, 60.0233], [18.0237, 60.0228], [17.9948, 60.0432], [17.9907, 60.0479], [17.9958, 60.0513], [17.9854, 60.0585], [17.9153, 60.0633], [17.9069, 60.0592], [17.8904, 60.0733], [17.9036, 60.0872], [17.8948, 60.0974], [17.8985, 60.1141], [17.8915, 60.115], [17.8848, 60.1084], [17.8881, 60.1033], [17.8448, 60.1033], [17.8454, 60.1074], [17.8608, 60.109], [17.8459, 60.1116], [17.8464, 60.1271], [17.852, 60.1359], [17.8035, 60.1495], [17.7942, 60.1393], [17.7818, 60.1411], [17.7858, 60.138], [17.757, 60.1258], [17.7451, 60.128], [17.7421, 60.1404], [17.7365, 60.1354], [17.7122, 60.1413], [17.7159, 60.1344], [17.6387, 60.1213], [17.6097, 60.11], [17.6266, 60.0967], [17.5987, 60.097], [17.5918, 60.0887], [17.5733, 60.0895], [17.5621, 60.1001], [17.558, 60.0963], [17.5441, 60.1141], [17.5136, 60.1345], [17.4985, 60.1501], [17.4916, 60.1703], [17.4793, 60.1862], [17.4713, 60.1768], [17.4638, 60.1789], [17.4413, 60.1684], [17.4548, 60.1658], [17.4456, 60.1655], [17.436, 60.1547], [17.4196, 60.1576], [17.4112, 60.1546], [17.4, 60.1452], [17.4048, 60.1425], [17.3726, 60.1448], [17.3671, 60.1519], [17.3218, 60.1335], [17.3229, 60.1263], [17.3143, 60.1172], [17.3161, 60.1131], [17.2977, 60.106], [17.3087, 60.0861], [17.3027, 60.0645], [17.2793, 60.0437], [17.2522, 60.0386], [17.2068, 60.0448], [17.1703, 60.02], [17.16, 60.0066], [17.1416, 60.0002]], [[17.5501, 60.0924], [17.5499, 60.0931], [17.5503, 60.0947], [17.5501, 60.0924]], [[17.55, 60.0949], [17.5501, 60.0982], [17.5503, 60.0949], [17.55, 60.0949]]], [[[17.435, 60.1655], [17.4345, 60.1642], [17.4352, 60.1653], [17.435, 60.1655]]], [[[17.4361, 60.1651], [17.4378, 60.1636], [17.4391, 60.1643], [17.4361, 60.1651]]], [[[17.4396, 60.1641], [17.4394, 60.1637], [17.4397, 60.1638], [17.4396, 60.1641]]], [[[17.4399, 60.1633], [17.4413, 60.163], [17.441, 60.1635], [17.4399, 60.1633]]], [[[17.7874, 59.8058], [17.7821, 59.8032], [17.7878, 59.8054], [17.7874, 59.8058]]], [[[17.8707, 60.1085], [17.8738, 60.1061], [17.8821, 60.1091], [17.8781, 60.1117], [17.8707, 60.1085]]], [[[18.107, 59.8133], [18.1078, 59.8111], [18.1076, 59.8134], [18.107, 59.8133]]], [[[18.1173, 59.814], [18.1236, 59.8121], [18.1242, 59.8165], [18.1213, 59.817], [18.1173, 59.814]]]]}}]}